NORAD_CAT_ID,OBJECT_NAME,OBJECT_TYPE,EPOCH,MEAN_MOTION,ECCENTRICITY,INCLINATION,RA_OF_ASC_NODE,ARG_OF_PERICENTER,MEAN_ANOMALY,BSTAR,MEAN_MOTION_DOT,MEAN_MOTION_DDOT,TLE_LINE0,TLE_LINE1,TLE_LINE2,SEMIMAJOR_AXIS,PERIOD,APOGEE,PERIGEE,DECAYED
51868.0,STARLINK-3578,PAYLOAD,2024-02-07 14:30:11,15.08841305,0.0001808,53.218,185.7667,63.235,296.8827,9.4024e-05,1.209e-05,0.0,0 STARLINK-3578,1 51868U 22022S   24038.60430389  .00001209  00000-0  94024-4 0  9991,2 51868  53.2180 185.7667 0001808  63.2350 296.8827 15.08841305108214,6917.876,95.437,540.992,538.491,0.0
51868.0,STARLINK-3578,PAYLOAD,2024-02-07 16:05:34,15.08842444,0.0001868,53.218,185.4695,61.9131,298.205,0.00010477,1.38e-05,0.0,0 STARLINK-3578,1 51868U 22022S   24038.67054317  .00001380  00000-0  10477-3 0  9990,2 51868  53.2180 185.4695 0001868  61.9131 298.2050 15.08842444108220,6917.873,95.437,541.03,538.446,0.0
51868.0,STARLINK-3578,PAYLOAD,2024-02-08 14:20:58,15.08844418,0.0001369,53.2168,181.303,83.2269,276.8878,6.947e-05,8.18e-06,0.0,0 STARLINK-3578,1 51868U 22022S   24039.59790077  .00000818  00000-0  69470-4 0  9995,2 51868  53.2168 181.3030 0001369  83.2269 276.8878 15.08844418108367,6917.867,95.437,540.679,538.785,0.0
51868.0,STARLINK-3578,PAYLOAD,2024-02-09 14:11:46,15.08836371,0.0001613,53.2179,176.8504,112.5977,247.5186,-2.273e-05,-6.5e-06,0.0,0 STARLINK-3578,1 51868U 22022S   24040.59150883 -.00000650  00000-0 -22730-4 0  9996,2 51868  53.2179 176.8504 0001613 112.5977 247.5186 15.08836371108511,6917.891,95.438,540.872,538.641,0.0
51868.0,STARLINK-3578,PAYLOAD,2024-02-09 18:57:55,15.08840759,0.0001327,53.2165,175.9486,67.3067,292.8066,-5.1992e-05,-1.115e-05,0.0,0 STARLINK-3578,1 51868U 22022S   24040.79022741 -.00001115  00000-0 -51992-4 0  9998,2 51868  53.2165 175.9486 0001327  67.3067 292.8066 15.08840759108542,6917.878,95.438,540.661,538.825,0.0
51868.0,STARLINK-3578,PAYLOAD,2024-02-10 14:02:32,15.08844153,0.0001441,53.2175,172.383,103.9488,256.1665,0.00013823,1.913e-05,0.0,0 STARLINK-3578,1 51868U 22022S   24041.58510029  .00001913  00000-0  13823-3 0  9991,2 51868  53.2175 172.3830 0001441 103.9488 256.1665 15.08844153108661,6917.868,95.437,540.73,538.736,0.0
51868.0,STARLINK-3578,PAYLOAD,2024-02-11 12:17:57,15.08839028,0.0001145,53.2168,168.2202,88.9021,271.2102,6.7965e-05,7.94e-06,0.0,0 STARLINK-3578,1 51868U 22022S   24042.51246625  .00000794  00000-0  67965-4 0  9996,2 51868  53.2168 168.2202 0001145  88.9021 271.2102 15.08839028108801,6917.883,95.438,540.54,538.956,0.0
51868.0,STARLINK-3578,PAYLOAD,2024-02-11 13:53:20,15.08840837,0.0001144,53.2167,167.9226,88.7186,271.3937,7.9482e-05,9.77e-06,0.0,0 STARLINK-3578,1 51868U 22022S   24042.57870473  .00000977  00000-0  79482-4 0  9996,2 51868  53.2167 167.9226 0001144  88.7186 271.3937 15.08840837108819,6917.878,95.438,540.534,538.951,0.0
51868.0,STARLINK-3578,PAYLOAD,2024-02-12 13:44:06,15.08872473,0.0002063,53.2172,163.463,127.3615,232.7566,-0.00025533,-4.353e-05,0.0,0 STARLINK-3578,1 51868U 22022S   24043.57229220 -.00004353  00000-0 -25533-3 0  9996,2 51868  53.2172 163.4630 0002063 127.3615 232.7566 15.08872473108969,6917.781,95.436,541.073,538.219,0.0
51868.0,STARLINK-3578,PAYLOAD,2024-02-12 16:54:52,15.08863942,0.0001703,53.2184,162.8684,84.6262,275.4924,-3.8697e-05,-9.04e-06,0.0,0 STARLINK-3578,1 51868U 22022S   24043.70477163 -.00000904  00000-0 -38697-4 0  9996,2 51868  53.2184 162.8684 0001703  84.6262 275.4924 15.08863942108982,6917.807,95.436,540.85,538.494,0.0
51868.0,STARLINK-3578,PAYLOAD,2024-02-13 11:59:32,15.08830248,0.0001386,53.2176,159.3019,99.7924,260.3225,-5.9784e-05,-1.239e-05,0.0,0 STARLINK-3578,1 51868U 22022S   24044.49967602 -.00001239  00000-0 -59784-4 0  9997,2 51868  53.2176 159.3019 0001386  99.7924 260.3225 15.08830248109100,6917.91,95.438,540.734,538.816,0.0
51868.0,STARLINK-3578,PAYLOAD,2024-02-13 13:34:55,15.08831608,0.0001498,53.2175,159.0042,97.6228,262.4934,-4.7409e-05,-1.042e-05,0.0,0 STARLINK-3578,1 51868U 22022S   24044.56591567 -.00001042  00000-0 -47409-4 0  9991,2 51868  53.2175 159.0042 0001498  97.6228 262.4934 15.08831608109112,6917.906,95.438,540.807,538.735,0.0
51868.0,STARLINK-3578,PAYLOAD,2024-02-13 15:10:18,15.08834306,0.0001499,53.2178,158.7068,92.1996,267.9168,-1.9757e-05,-6.02e-06,0.0,0 STARLINK-3578,1 51868U 22022S   24044.63215389 -.00000602  00000-0 -19757-4 0  9990,2 51868  53.2178 158.7068 0001499  92.1996 267.9168 15.08834306109120,6917.898,95.438,540.8,538.726,0.0
51868.0,STARLINK-3578,PAYLOAD,2024-02-14 13:25:42,15.0883344,0.0001659,53.2182,154.5416,76.5333,283.5844,-0.00013726,-2.471e-05,0.0,0 STARLINK-3578,1 51868U 22022S   24045.55952424 -.00002471  00000-0 -13726-3 0  9995,2 51868  53.2182 154.5416 0001659  76.5333 283.5844 15.08833440109263,6917.9,95.438,540.913,538.618,0.0
51868.0,STARLINK-3578,PAYLOAD,2024-02-15 00:33:24,15.08842215,0.0001881,53.2193,152.4602,75.8643,284.2558,-4.0938e-05,-9.4e-06,0.0,0 STARLINK-3578,1 51868U 22022S   24046.02319647 -.00000940  00000-0 -40938-4 0  9997,2 51868  53.2193 152.4602 0001881  75.8643 284.2558 15.08842215109330,6917.874,95.437,541.04,538.437,0.0
51868.0,STARLINK-3578,PAYLOAD,2024-02-15 13:16:29,15.088408,0.0001757,53.2185,150.0813,78.4993,281.6196,0.00012925,1.77e-05,0.0,0 STARLINK-3578,1 51868U 22022S   24046.55311743  .00001770  00000-0  12925-3 0  9998,2 51868  53.2185 150.0813 0001757  78.4993 281.6196 15.08840800109414,6917.878,95.438,540.958,538.527,0.0
51868.0,STARLINK-3578,PAYLOAD,2024-02-16 09:56:29,15.08838764,0.000137,53.2165,146.2166,81.671,278.4437,0.00023179,3.403e-05,0.0,0 STARLINK-3578,1 51868U 22022S   24047.41423575  .00003403  00000-0  23179-3 0  9999,2 51868  53.2165 146.2166 0001370  81.6710 278.4437 15.08838764109546,6917.884,95.438,540.697,538.801,0.0
51868.0,STARLINK-3578,PAYLOAD,2024-02-16 13:07:15,15.08850703,0.0001502,53.2177,145.6219,86.4569,273.6595,0.00017501,2.499e-05,0.0,0 STARLINK-3578,1 51868U 22022S   24047.54670986  .00002499  00000-0  17501-3 0  9999,2 51868  53.2177 145.6219 0001502  86.4569 273.6595 15.08850703109564,6917.848,95.437,540.752,538.674,0.0
51868.0,STARLINK-3578,PAYLOAD,2024-02-17 11:22:40,15.08839389,0.0001524,53.2173,141.4569,88.9917,271.125,-3.0628e-06,-3.37e-06,0.0,0 STARLINK-3578,1 51868U 22022S   24048.47408136 -.00000337  00000-0 -30628-5 0  9996,2 51868  53.2173 141.4569 0001524  88.9917 271.1250 15.08839389109704,6917.882,95.438,540.802,538.693,0.0
51868.0,STARLINK-3578,PAYLOAD,2024-02-17 12:58:03,15.0884069,0.0001479,53.217,141.1604,96.8666,263.2495,1.1402e-05,-1.07e-06,0.0,0 STARLINK-3578,1 51868U 22022S   24048.54031954 -.00000107  00000-0  11402-4 0  9996,2 51868  53.2170 141.1604 0001479  96.8666 263.2495 15.08840690109717,6917.878,95.438,540.766,538.72,0.0
51868.0,STARLINK-3578,PAYLOAD,2024-02-17 22:30:22,15.0884212,0.0001515,53.2179,139.3752,94.8337,265.2828,-4.7461e-05,-1.043e-05,0.0,0 STARLINK-3578,1 51868U 22022S   24048.93775924 -.00001043  00000-0 -47461-4 0  9996,2 51868  53.2179 139.3752 0001515  94.8337 265.2828 15.08842120109771,6917.874,95.437,540.787,538.691,0.0
51868.0,STARLINK-3578,PAYLOAD,2024-02-18 12:48:50,15.08841105,0.0001336,53.2189,136.7036,93.9913,266.1232,0.00012492,1.701e-05,0.0,0 STARLINK-3578,1 51868U 22022S   24049.53391642  .00001701  00000-0  12492-3 0  9998,2 51868  53.2189 136.7036 0001336  93.9913 266.1232 15.08841105109860,6917.877,95.437,540.666,538.818,0.0
51868.0,STARLINK-3578,PAYLOAD,2024-02-18 22:21:09,15.08836174,0.000136,53.2165,134.9167,84.4982,275.6166,6.7316e-05,7.83e-06,0.0,0 STARLINK-3578,1 51868U 22022S   24049.93136057  .00000783  00000-0  67316-4 0  9994,2 51868  53.2165 134.9167 0001360  84.4982 275.6166 15.08836174109925,6917.892,95.438,540.698,538.816,0.0
51868.0,STARLINK-3578,PAYLOAD,2024-02-19 04:42:42,15.08831082,0.0001381,53.2173,133.7286,99.4916,260.6232,8.7128e-05,1.099e-05,0.0,0 STARLINK-3578,1 51868U 22022S   24050.19632336  .00001099  00000-0  87128-4 0  9999,2 51868  53.2173 133.7286 0001381  99.4916 260.6232 15.08831082109964,6917.908,95.438,540.728,538.817,0.0
51868.0,STARLINK-3578,PAYLOAD,2024-02-19 12:39:37,15.08835062,0.000137,53.2171,132.2423,101.5211,258.5935,0.00010962,1.457e-05,0.0,0 STARLINK-3578,1 51868U 22022S   24050.52752140  .00001457  00000-0  10962-3 0  9991,2 51868  53.2171 132.2423 0001370 101.5211 258.5935 15.08835062110016,6917.895,95.438,540.708,538.813,0.0
51868.0,STARLINK-3578,PAYLOAD,2024-02-19 22:11:56,15.08838256,0.0001449,53.2175,130.4583,98.4143,261.7013,8.3217e-05,1.037e-05,0.0,0 STARLINK-3578,1 51868U 22022S   24050.92496034  .00001037  00000-0  83217-4 0  9990,2 51868  53.2175 130.4583 0001449  98.4143 261.7013 15.08838256110079,6917.886,95.438,540.753,538.748,0.0
51868.0,STARLINK-3578,PAYLOAD,2024-02-20 10:55:02,15.08831939,0.0001464,53.2169,128.0785,88.5828,271.5332,-6.1625e-06,-3.86e-06,0.0,0 STARLINK-3578,1 51868U 22022S   24051.45488995 -.00000386  00000-0 -61625-5 0  9994,2 51868  53.2169 128.0785 0001464  88.5828 271.5332 15.08831939110159,6917.905,95.438,540.783,538.757,0.0
51868.0,STARLINK-3578,PAYLOAD,2024-02-20 12:30:25,15.08832947,0.0001523,53.218,127.7812,86.5318,273.5848,2.372e-06,-2.5e-06,0.0,0 STARLINK-3578,1 51868U 22022S   24051.52112952 -.00000250  00000-0  23720-5 0  9992,2 51868  53.2180 127.7812 0001523  86.5318 273.5848 15.08832947110162,6917.902,95.438,540.821,538.713,0.0
51868.0,STARLINK-3578,PAYLOAD,2024-02-21 04:24:16,15.08841429,0.0001429,53.217,124.8081,92.5844,267.5312,0.00010167,1.331e-05,0.0,0 STARLINK-3578,1 51868U 22022S   24052.18352078  .00001331  00000-0  10167-3 0  9999,2 51868  53.2170 124.8081 0001429  92.5844 267.5312 15.08841429110268,6917.876,95.437,540.73,538.752,0.0
51868.0,STARLINK-3578,PAYLOAD,2024-02-21 12:21:11,15.08849743,0.0001439,53.2169,123.3203,92.0649,268.0508,0.00012198,1.654e-05,0.0,0 STARLINK-3578,1 51868U 22022S   24052.51471491  .00001654  00000-0  12198-3 0  9991,2 51868  53.2169 123.3203 0001439  92.0649 268.0508 15.08849743110311,6917.851,95.437,540.711,538.72,0.0
